STARLINK-32707          
1 62478U 24254S   26068.23707882  .00024903  00000+0  91105-3 0  9999
2 62478  43.0003  18.9358 0002324 257.6288 102.4304 15.27592539 67580
FLOCK 4G-6              
1 62660U 25009BD  26068.71061311  .00012261  00000+0  45910-3 0  9991
2 62660  97.3980 150.7943 0002380 348.2637  11.8546 15.27432125121307
